GLOBALSTAR M069         
1 31573U 07020C   26196.94246822 -.00000116  00000+0 -21601-3 0  9991
2 31573  52.0010 170.7368 0001640 212.0895 183.4853 12.23472242882323
GLOBALSTAR M072         
1 31574U 07020D   26196.93278862 -.00000071  00000+0  17645-3 0  9992
2 31574  51.9949  23.7168 0001655  36.9818 140.9534 11.91658840878404
GLOBALSTAR M066         
1 32265U 07048C   26196.66044347 -.00000052  00000+0  36375-3 0  9999
2 32265  51.9609 336.1749 0005594 102.7371 269.9817 12.30389489863733
GLOBALSTAR M079         
1 37188U 10054A   26196.89887796 -.00000104  00000+0 -28003-5 0  9997
2 37188  52.0055  21.2674 0001128  78.9268  67.7048 12.62266431726178
GLOBALSTAR M074         
1 37189U 10054B   26196.92915834 -.00000103  00000+0  68052-5 0  9993
2 37189  52.0032  20.4362 0000869  93.4873  70.7747 12.62262033726785
GLOBALSTAR M076         
1 37190U 10054C   26196.76380812 -.00000096  00000+0  46166-4 0  9991
2 37190  52.0044  21.1451 0001095  93.6543 278.7739 12.62262357726482
GLOBALSTAR M077         
1 37191U 10054D   26196.89179644 -.00000103  00000+0 -45728-3 0  9997
2 37191  51.9959 106.4385 0002257 226.4798 210.2502 11.67547421724498
GLOBALSTAR M075         
1 37192U 10054E   26196.95573411 -.00000089  00000+0  81993-4 0  9992
2 37192  51.9955  62.5987 0000763  65.9396  39.5857 12.62267849725579
GLOBALSTAR M073         
1 37193U 10054F   26196.81062973 -.00000104  00000+0 -30190-5 0  9997
2 37193  52.0081 337.1637 0001062  96.8782  67.2732 12.62266879727541
GLOBALSTAR M083         
1 37739U 11033A   26196.57281197 -.00000074  00000+0  16682-3 0  9998
2 37739  51.9866 286.0787 0000770 107.2171 357.0003 12.62264174696539
GLOBALSTAR M088         
1 37740U 11033B   26196.92145029 -.00000114  00000+0 -59868-4 0  9992
2 37740  52.0189 191.5125 0000044  96.0070 271.9575 12.62269497692126
GLOBALSTAR M091         
1 37741U 11033C   26196.65357742 -.00000121  00000+0 -98039-4 0  9991
2 37741  51.9981 155.2505 0000434  24.3021 146.4094 12.62264251692874
GLOBALSTAR M085         
1 37742U 11033D   26196.93724580 -.00000096  00000+0  44021-4 0  9993
2 37742  52.0124 105.7043 0000790  42.2244  38.1585 12.62264333693429
GLOBALSTAR M081         
1 37743U 11033E   26196.96382687 -.00000103  00000+0  28169-5 0  9990
2 37743  51.9954 108.0266 0000678  56.2486  24.8320 12.62265271693577
GLOBALSTAR M089         
1 37744U 11033F   26196.92891089 -.00000089  00000+0  82498-4 0  9995
2 37744  51.9937  62.2863 0000701  90.5312  12.9171 12.62267597694418
GLOBALSTAR M084         
1 38040U 11080A   26196.46204899 -.00000085  00000+0  10404-3 0  9996
2 38040  52.0021 291.2057 0000824 129.9842 310.7473 12.62263504672339
